{
  "status": "success",
  "hasErrors": false,
  "message": "",
  "length": 155,
  "payload": [
    {
      "_index": "tle",
      "_type": "_doc",
      "_id": "FO_ktXYBwxzt-Zlw_Tqa",
      "_score": 9.444279,
      "_source": {
        "right_ascension": "207.4983",
        "anomaly": "072.8669",
        "calc_anomaly": 72.8669,
        "satellite_number": 10976,
        "calc_mean_motion": 2.22224989,
        "ephemeris": "0",
        "set_number": "556",
        "calc_ballistic_coefficient": 0.00000106,
        "epoch": "06003.65395180",
        "international_designator": "78068B",
        "calc_inclination": 21.2259,
        "perigee": "210.9993",
        "revolution_number": "22323",
        "line_number": 87147,
        "calc_perigee": 210.9993,
        "drag": "19086-2",
        "text": "1 10976U 78068B   06003.65395180  .00000106  00000-0  19086-2 0  5560\n2 10976  21.2259 207.4983 7179481 210.9993  72.8669  2.22224989223239",
        "calc_drag": 0.0019086,
        "timestamp": "2006-01-03 15:41:41",
        "inclination": "021.2259",
        "eccentricity": "7179481",
        "classification": "U",
        "calc_right_ascension": 207.4983,
        "calc_mean_motion_2": 0,
        "ballistic_coefficient": ".00000106",
        "filename": "tle2006.txt",
        "calc_eccentricity": 0.7179481,
        "mean_motion": "02.22224989",
        "mean_motion_2": "00000-0"
      }
    },
    {
      "_index": "tle",
      "_type": "_doc",
      "_id": "rPEItnYBwxzt-Zlwt81q",
      "_score": 9.444279,
      "_source": {
        "right_ascension": "059.7001",
        "anomaly": "356.1410",
        "calc_anomaly": 356.141,
        "satellite_number": 10976,
        "calc_mean_motion": 2.22237259,
        "ephemeris": "0",
        "set_number": "518",
        "calc_ballistic_coefficient": -0.00000256,
        "epoch": "10008.12884947",
        "international_designator": "78068B",
        "calc_inclination": 21.8408,
        "perigee": "032.9023",
        "revolution_number": "25581",
        "line_number": 215307,
        "calc_perigee": 32.9023,
        "drag": "00000+0",
        "text": "1 10976U 78068B   10008.12884947 -.00000256  00000-0  00000-0 0  5185\n2 10976  21.8408  59.7001 7177594  32.9023 356.1410  2.22237259255814",
        "calc_drag": 0,
        "timestamp": "2010-01-08 03:05:32",
        "inclination": "021.8408",
        "eccentricity": "7177594",
        "classification": "U",
        "calc_right_ascension": 59.7001,
        "calc_mean_motion_2": 0,
        "ballistic_coefficient": "-.00000256",
        "filename": "tle2010.txt",
        "calc_eccentricity": 0.7177594,
        "mean_motion": "02.22237259",
        "mean_motion_2": "00000-0"
      }
    },
    {
      "_index": "tle",
      "_type": "_doc",
      "_id": "mmMRtnYBAz3ao6c9OzPA",
      "_score": 9.444279,
      "_source": {
        "right_ascension": "297.5996",
        "anomaly": "024.4863",
        "calc_anomaly": 24.4863,
        "satellite_number": 10976,
        "calc_mean_motion": 2.22243552,
        "ephemeris": "0",
        "set_number": "733",
        "calc_ballistic_coefficient": -3.9e-7,
        "epoch": "11002.68127382",
        "international_designator": "78068B",
        "calc_inclination": 21.7748,
        "perigee": "250.6036",
        "revolution_number": "26381",
        "line_number": 61221,
        "calc_perigee": 250.6036,
        "drag": "00000+0",
        "text": "1 10976U 78068B   11002.68127382 -.00000039  00000-0  00000-0 0  7332\n2 10976  21.7748 297.5996 7167676 250.6036  24.4863  2.22243552263817",
        "calc_drag": 0,
        "timestamp": "2011-01-02 16:21:02",
        "inclination": "021.7748",
        "eccentricity": "7167676",
        "classification": "U",
        "calc_right_ascension": 297.5996,
        "calc_mean_motion_2": 0,
        "ballistic_coefficient": "-.00000039",
        "filename": "tle2011.txt",
        "calc_eccentricity": 0.7167676,
        "mean_motion": "02.22243552",
        "mean_motion_2": "00000-0"
      }
    },
    {
      "_index": "tle",
      "_type": "_doc",
      "_id": "IGQltnYBAz3ao6c9sn8L",
      "_score": 9.444279,
      "_source": {
        "right_ascension": "043.6951",
        "anomaly": "105.0367",
        "calc_anomaly": 105.0367,
        "satellite_number": 10976,
        "calc_mean_motion": 2.22264942,
        "ephemeris": "0",
        "set_number": "127",
        "calc_ballistic_coefficient": 7.2e-7,
        "epoch": "13002.47633602",
        "international_designator": "78068B",
        "calc_inclination": 21.777,
        "perigee": "341.0513",
        "revolution_number": "28006",
        "line_number": 26167,
        "calc_perigee": 341.0513,
        "drag": "16656-2",
        "text": "1 10976U 78068B   13002.47633602  .00000072  00000-0  16656-2 0  1277\n2 10976  21.7770  43.6951 7174028 341.0513 105.0367  2.22264942280064",
        "calc_drag": 0.0016656,
        "timestamp": "2013-01-02 11:25:55",
        "inclination": "021.7770",
        "eccentricity": "7174028",
        "classification": "U",
        "calc_right_ascension": 43.6951,
        "calc_mean_motion_2": 0,
        "ballistic_coefficient": ".00000072",
        "filename": "tle2013.txt",
        "calc_eccentricity": 0.7174028,
        "mean_motion": "02.22264942",
        "mean_motion_2": "00000-0"
      }
    },
    {
      "_index": "tle",
      "_type": "_doc",
      "_id": "1GUytnYBAz3ao6c9YGvf",
      "_score": 9.444279,
      "_source": {
        "right_ascension": "153.2011",
        "anomaly": "007.3408",
        "calc_anomaly": 7.3408,
        "satellite_number": 10976,
        "calc_mean_motion": 2.22298314,
        "ephemeris": "0",
        "set_number": "551",
        "calc_ballistic_coefficient": 6e-7,
        "epoch": "14365.71035973",
        "international_designator": "78068B",
        "calc_inclination": 21.1791,
        "perigee": "066.6838",
        "revolution_number": "29626",
        "line_number": 2119,
        "calc_perigee": 66.6838,
        "drag": "39188-3",
        "text": "1 10976U 78068B   14365.71035973  .00000060  00000-0  39188-3 0  5518\n2 10976  21.1791 153.2011 7177223  66.6838   7.3408  2.22298314296265",
        "calc_drag": 0.00039188,
        "timestamp": "2014-12-31 17:02:55",
        "inclination": "021.1791",
        "eccentricity": "7177223",
        "classification": "U",
        "calc_right_ascension": 153.2011,
        "calc_mean_motion_2": 0,
        "ballistic_coefficient": ".00000060",
        "filename": "tle2015.txt",
        "calc_eccentricity": 0.7177223,
        "mean_motion": "02.22298314",
        "mean_motion_2": "00000-0"
      }
    },
    {
      "_index": "tle",
      "_type": "_doc",
      "_id": "f_U4tnYBwxzt-ZlwBW7B",
      "_score": 9.444279,
      "_source": {
        "right_ascension": "150.8262",
        "anomaly": "356.1400",
        "calc_anomaly": 356.14,
        "satellite_number": 10976,
        "calc_mean_motion": 2.22299102,
        "ephemeris": "0",
        "set_number": "555",
        "calc_ballistic_coefficient": -7.8e-7,
        "epoch": "15007.44405383",
        "international_designator": "78068B",
        "calc_inclination": 21.1671,
        "perigee": "070.8699",
        "revolution_number": "29641",
        "line_number": 130207,
        "calc_perigee": 70.8699,
        "drag": "-84497-3",
        "text": "1 10976U 78068B   15007.44405383 -.00000078  00000-0 -84497-3 0  5556\n2 10976  21.1671 150.8262 7178299  70.8699 356.1400  2.22299102296419",
        "calc_drag": -0.00084497,
        "timestamp": "2015-01-07 10:39:26",
        "inclination": "021.1671",
        "eccentricity": "7178299",
        "classification": "U",
        "calc_right_ascension": 150.8262,
        "calc_mean_motion_2": 0,
        "ballistic_coefficient": "-.00000078",
        "filename": "tle2015.txt",
        "calc_eccentricity": 0.7178299,
        "mean_motion": "02.22299102",
        "mean_motion_2": "00000-0"
      }
    },
    {
      "_index": "tle",
      "_type": "_doc",
      "_id": "HWY4tnYBAz3ao6c9-RVz",
      "_score": 9.444279,
      "_source": {
        "right_ascension": "151.7739",
        "anomaly": "008.1511",
        "calc_anomaly": 8.1511,
        "satellite_number": 10976,
        "calc_mean_motion": 2.22299017,
        "ephemeris": "0",
        "set_number": "553",
        "calc_ballistic_coefficient": -2e-7,
        "epoch": "15004.75999044",
        "international_designator": "78068B",
        "calc_inclination": 21.1717,
        "perigee": "069.2003",
        "revolution_number": "29635",
        "line_number": 76875,
        "calc_perigee": 69.2003,
        "drag": "-45573-3",
        "text": "1 10976U 78068B   15004.75999044 -.00000020  00000-0 -45573-3 0  5536\n2 10976  21.1717 151.7739 7177907  69.2003   8.1511  2.22299017296350",
        "calc_drag": -0.00045573,
        "timestamp": "2015-01-04 18:14:23",
        "inclination": "021.1717",
        "eccentricity": "7177907",
        "classification": "U",
        "calc_right_ascension": 151.7739,
        "calc_mean_motion_2": 0,
        "ballistic_coefficient": "-.00000020",
        "filename": "tle2015.txt",
        "calc_eccentricity": 0.7177907,
        "mean_motion": "02.22299017",
        "mean_motion_2": "00000-0"
      }
    }
  ]
}